INTELSAT 10 (IS-10)     
1 26766U 01019A   26035.04021726 -.00000036  00000+0  00000+0 0  9994
2 26766   8.7570  60.6079 0008434 252.6678 104.5252  0.99072725 44254
INTELSAT 902 (IS-902)   
1 26900U 01039A   26037.40198925 -.00000284  00000+0  00000+0 0  9999
2 26900   5.7866  73.3935 0004584 245.8965 271.8465  1.00271907 89389
INTELSAT 904 (IS-904)   
1 27380U 02007A   26037.40571594 -.00000226  00000+0  00000+0 0  9991
2 27380   6.5935  70.7678 0004800 292.2173 248.0826  1.00272573 50454
DIRECTV 5 (TEMPO 1)     
1 27426U 02023A   26037.60413604 -.00000057  00000+0  00000+0 0  9991
2 27426   4.5445  76.9636 0003478 252.0293 275.0895  1.00272369 86816
INTELSAT 905 (IS-905)   
1 27438U 02027A   26037.27970790  .00000093  00000+0  00000+0 0  9994
2 27438   6.4250  71.3911 0003024 251.5800 136.9140  1.00271389 50050
GALAXY 3C (G-3C)        
1 27445U 02030A   26037.60708272 -.00000152  00000+0  00000+0 0  9994
2 27445   3.4014  79.8305 0000774  48.0839 132.5097  1.00271915 45189
INTELSAT 906 (IS-906)   
1 27513U 02041A   26037.63640421  .00000013  00000+0  00000+0 0  9991
2 27513   5.4707  74.5451 0004452 224.6636 130.8088  1.00272577 85713
GALAXY 13 (HORIZONS-1)  
1 27954U 03044A   26037.59616266  .00000134  00000+0  00000+0 0  9993
2 27954   1.0803  85.7248 0002121 234.3345 241.2546  1.00273216 45268
INTELSAT 10-02          
1 28358U 04022A   26037.62571615 -.00000010  00000+0  00000+0 0  9995
2 28358   0.0214  97.5745 0000893 272.7348 350.6767  1.00269799 79244
DIRECTV 8               
1 28659U 05019A   26037.60231603  .00000003  00000+0  00000+0 0  9995
2 28659   0.0173  94.7008 0003321 239.7837 260.0078  1.00272386 75766
GALAXY 28 (G-28)        
1 28702U 05022A   26037.40545594 -.00000188  00000+0  00000+0 0  9998
2 28702   2.9614  80.6019 0001991 232.0486 297.2143  1.00584589 50667
GALAXY 16 (G-16)        
1 29236U 06023A   26037.60630272 -.00000125  00000+0  00000+0 0  9994
2 29236   0.0301 187.4799 0002933 141.2005 287.2913  1.00271042 71662
DIRECTV 9S              
1 29494U 06043A   26037.60586937 -.00000112  00000+0  00000+0 0  9996
2 29494   2.0841  82.5595 0003124 245.3495 285.7026  1.00272395 50072
GALAXY 17 (G-17)        
1 31307U 07016B   26037.60907607 -.00000205  00000+0  00000+0 0  9997
2 31307   2.6412  81.6004 0004278 218.2261 331.1633  1.00271812 68492
DIRECTV 10              
1 31862U 07032A   26034.22368691  .00000059  00000+0  00000+0 0  9996
2 31862   0.0549 113.2732 0002133 256.4898  87.9715  0.99432575 44256
INTELSAT 11 (IS-11)     
1 32253U 07044B   26037.40814262 -.00000231  00000+0  00000+0 0  9990
2 32253   3.2250  80.3110 0006703 193.2812 350.7665  0.99053085 67154
HORIZONS-2              
1 32388U 07063B   26037.39730923 -.00000253  00000+0  00000+0 0  9993
2 32388   2.2653  82.3085 0003433 229.1956 254.2363  1.00272700 66508
DIRECTV 11              
1 32729U 08013A   26037.17830140 -.00000125  00000+0  00000+0 0  9994
2 32729   0.0212 231.8635 0000379 115.4810 113.9318  1.00270793 44280
GALAXY 18 (G-18)        
1 32951U 08024A   26037.60153602  .00000027  00000+0  00000+0 0  9992
2 32951   0.0163 104.0463 0003177 233.6613 252.5347  1.00272983 44549
INTELSAT 25 (IS-25)     
1 33153U 08034A   26037.40571594 -.00000224  00000+0  00000+0 0  9990
2 33153   2.3708  81.9814 0004416 228.9446 300.1579  1.00271206 64383
GALAXY 19 (G-19)        
1 33376U 08045A   26037.60664939 -.00000137  00000+0  00000+0 0  9990
2 33376   0.0493 265.0909 0002874  58.8009 294.2135  1.00271092 63593
FM-5                    
1 35493U 09034A   26037.60881606 -.00000198  00000+0  00000+0 0  9990
2 35493   0.0227 232.1600 0001084 318.2473  79.3244  1.00271841 45330
INTELSAT 14 (IS-14)     
1 36097U 09064A   26037.40302926 -.00000272  00000+0  00000+0 0  9998
2 36097   0.0123  81.8257 0002396 239.7784 274.9912  1.00273633 59298
INTELSAT 15 (IS-15)     
1 36106U 09067A   26037.61764792  .00000000  00000+0  00000+0 0  9996
2 36106   0.0158  96.5099 0002157 242.1690 105.5717  1.00273473 39914
DIRECTV 12              
1 36131U 09075A   26037.60552271 -.00000102  00000+0  00000+0 0  9993
2 36131   0.0156 224.8496 0000279 124.3836 262.7617  1.00271145 45245
INTELSAT 16 (IS-16)     
1 36397U 10006A   26037.39687589 -.00000244  00000+0  00000+0 0  9997
2 36397   0.0189  76.7206 0002144 241.2365 245.2257  1.00272916 58345
XM-5                    
1 37185U 10053A   26037.60309603 -.00000021  00000+0  00000+0 0  9990
2 37185   0.0619 270.3833 0002908 251.3108  76.9261  1.00272913 56172
INTELSAT 17 (IS-17)     
1 37238U 10065B   26037.63660411  .00000001  00000+0  00000+0 0  9999
2 37238   0.0114 153.2324 0002502 172.7538 105.9353  1.00271123 51934
INTELSAT 28 (IS-28)     
1 37392U 11016A   26037.67096257 -.00000224  00000+0  00000+0 0  9990
2 37392   1.4692  84.3677 0004077 230.8056  31.4305  1.00271162 51973
INTELSAT 18 (IS-18)     
1 37834U 11056A   26037.59026929  .00000055  00000+0  00000+0 0  9996
2 37834   0.0433 263.7310 0001894  57.3384 208.1254  1.00273723 52500
INTELSAT 22 (IS-22)     
1 38098U 12011A   26037.63754147 -.00000056  00000+0  00000+0 0  9998
2 38098   0.0081  59.5334 0001602 268.9664 109.8570  1.00271399  5870
INTELSAT 19 (IS-19)     
1 38356U 12030A   26037.58749595 -.00000055  00000+0  00000+0 0  9990
2 38356   0.0194  93.0919 0003287 237.3001 183.8021  1.00272230 49146
INTELSAT 20 (IS-20)     
1 38740U 12043A   26037.63772568 -.00000021  00000+0  00000+0 0  9996
2 38740   0.0196 104.5571 0001961  54.1462 276.1212  1.00267670 49432
INTELSAT 21 (IS-21)     
1 38749U 12045A   26037.40042925 -.00000284  00000+0  00000+0 0  9990
2 38749   0.0455 272.0321 0001842  50.2980 260.3391  1.00272601 49212
INTELSAT 23 (IS-23)     
1 38867U 12057A   26037.40146925 -.00000284  00000+0  00000+0 0  9999
2 38867   0.0600 263.3574 0001985  37.9502 286.7411  1.00269091 48648
FM-6                    
1 39360U 13058A   26037.38890251 -.00000016  00000+0  00000+0 0  9998
2 39360   0.0270 102.4214 0002918  83.3803 334.5250  1.00275328 44762
INTELSAT 30 (IS-30)     
1 40271U 14062A   26037.60708272 -.00000149  00000+0  00000+0 0  9990
2 40271   0.0152  67.3993 0001364  38.3162 154.4895  1.00271553  5485
DIRECTV 14              
1 40333U 14078B   26037.45782428  .00000000  00000+0  00000+0 0  9999
2 40333   0.0237  93.0304 0000406  42.0762  67.0785  1.00268595 40730
DIRECTV 15              
1 40663U 15026A   26037.60552271 -.00000100  00000+0  00000+0 0  9999
2 40663   0.0190  91.6214 0000541  81.3161  78.8689  1.00270884 39158
SKY MEXICO-1            
1 40664U 15026B   26037.39635588 -.00000233  00000+0  00000+0 0  9996
2 40664   0.0157  90.5422 0002074 233.8359 236.0494  1.00273203 39146
INTELSAT 34 (IS-34)     
1 40874U 15039A   26037.40094925  .00000000  00000+0  00000+0 0  9990
2 40874   0.0141  85.6839 0000274  43.3344  96.3687  1.00268249 38310
INTELSAT 31 (IS-31)     
1 41581U 16035A   26035.31641947 -.00000156  00000+0  00000+0 0  9996
2 41581   0.0393 264.5915 0001972 316.5029 292.1873  1.00269768 35350
INTELSAT 36 (IS-36)     
1 41747U 16053A   26037.14025455 -.00000025  00000+0  00000+0 0  9998
2 41747   0.0108  56.1934 0001364 277.7439 281.2983  1.00276366 34635
INTELSAT 32E (IS-32E)   
1 41945U 17007B   26037.40337593 -.00000268  00000+0  00000+0 0  9995
2 41945   0.0143  91.8866 0000443 291.3979 215.2601  1.00270429 32919
INTELSAT 35E (IS-35E)   
1 42818U 17041A   26037.40510927 -.00000237  00000+0  00000+0 0  9993
2 42818   0.0139 125.3444 0002336 201.5772 280.9239  1.00271720 31501
INTELSAT 37E (IS-37E)   
1 42950U 17059A   26037.62216279 -.00000139  00000+0  00000+0 0  9997
2 42950   0.0154  97.8290 0002533 210.5045  34.3597  1.00272546 30750
AZERSPACE 2 (IS-38)     
1 43632U 18074A   26037.63481618  .00000138  00000+0  00000+0 0  9993
2 43632   0.0147  99.6073 0001398 231.6183  79.1552  1.00271394 27130
HORIZONS-3E             
1 43633U 18074B   26037.58810262 -.00000029  00000+0  00000+0 0  9999
2 43633   0.0469 255.7807 0000623  76.4317 185.1909  1.00272748 27039
AT&T T-16               
1 44333U 19034A   26037.60595604 -.00000113  00000+0  00000+0 0  9991
2 44333   0.0212  90.4911 0001165  75.1203  88.3750  1.00269259 24325
INTELSAT 39 (IS-39)     
1 44476U 19049B   26037.64688578  .00000036  00000+0  00000+0 0  9995
2 44476   0.0162 102.8952 0001064  30.5063 298.1713  1.00270952 23812
GALAXY 30 (G-30)        
1 46114U 20056C   26037.60110268  .00000039  00000+0  00000+0 0  9991
2 46114   0.0161 102.7722 0001981 229.8056 255.5174  1.00271673 19981
GALAXY 33 (G-33)        
1 54026U 22128A   26037.59954267  .00000000  00000+0  00000+0 0  9995
2 54026   0.0173  86.8018 0001827 238.5869 254.1833  1.00270317 12437
GALAXY 34 (G-34)        
1 54027U 22128B   26035.95988459  .00000000  00000+0  00000+0 0  9994
2 54027   0.0263 108.0441 0004491 289.3485 314.3057  1.00260903 12586
GALAXY 31 (G-31)        
1 54243U 22153A   26037.60196936  .00000015  00000+0  00000+0 0  9993
2 54243   0.0121 157.9967 0001450 169.9643 264.4551  1.00271550  5829
GALAXY 32 (G-32)        
1 54244U 22153B   26037.60786272 -.00000172  00000+0  00000+0 0  9997
2 54244   0.0134  69.4341 0002815 271.2373 283.8759  1.00272500 11839
GALAXY 35 (G-35)        
1 54741U 22170A   26037.60742939 -.00000160  00000+0  00000+0 0  9997
2 54741   0.0155 177.7355 0002021 143.3956 301.1513  1.00271031 11589
GALAXY 36 (G-36)        
1 54742U 22170B   26037.53898116 -.00000184  00000+0  00000+0 0  9995
2 54742   0.0200 120.2110 0001492 264.2265 217.2396  1.00272272 11461
GALAXY 37 (G-37)        
1 57493U 23112A   26037.60075602  .00000050  00000+0  00000+0 0  9994
2 57493   0.0147  84.5264 0002010 239.1025 262.3463  1.00272102  9231
